CCSDS_OEM_VERS = 2.0
CREATION_DATE  = 2025-09-12T22:20:53.242
ORIGINATOR     = Python_HGV

META_START
OBJECT_NAME          = HGV_00002
OBJECT_ID            = 0000-000A
CENTER_NAME          = Earth
REF_FRAME            = ICRF
TIME_SYSTEM          = UTC
INTERPOLATION        = LAGRANGE
INTERPOLATION_DEGREE = 5
START_TIME           = 2025-07-22T00:00:00.000
STOP_TIME            = 2025-07-22T00:28:32.000
META_STOP

2025-07-22T00:01:28.000  2.479839e+03  4.647450e+03  3.739464e+03 -2.144093e+00 -2.495545e+00  3.729831e+00
2025-07-22T00:01:29.000  2.477693e+03  4.644951e+03  3.743191e+03 -2.147908e+00 -2.501781e+00  3.724631e+00
2025-07-22T00:01:30.000  2.475543e+03  4.642446e+03  3.746913e+03 -2.151722e+00 -2.508014e+00  3.719426e+00
2025-07-22T00:01:31.000  2.473389e+03  4.639935e+03  3.750630e+03 -2.155534e+00 -2.514246e+00  3.714214e+00
2025-07-22T00:01:32.000  2.471232e+03  4.637418e+03  3.754341e+03 -2.159345e+00 -2.520476e+00  3.708997e+00
2025-07-22T00:01:33.000  2.469071e+03  4.634894e+03  3.758048e+03 -2.163154e+00 -2.526704e+00  3.703773e+00
2025-07-22T00:01:34.000  2.466906e+03  4.632364e+03  3.761749e+03 -2.166962e+00 -2.532930e+00  3.698543e+00
2025-07-22T00:01:35.000  2.464737e+03  4.629828e+03  3.765445e+03 -2.170768e+00 -2.539154e+00  3.693306e+00
2025-07-22T00:01:36.000  2.462564e+03  4.627286e+03  3.769136e+03 -2.174573e+00 -2.545376e+00  3.688064e+00
2025-07-22T00:01:37.000  2.460388e+03  4.624737e+03  3.772821e+03 -2.178376e+00 -2.551596e+00  3.682815e+00
2025-07-22T00:01:38.000  2.458207e+03  4.622183e+03  3.776501e+03 -2.182178e+00 -2.557815e+00  3.677560e+00
2025-07-22T00:01:39.000  2.456023e+03  4.619622e+03  3.780176e+03 -2.185979e+00 -2.564031e+00  3.672299e+00
2025-07-22T00:01:40.000  2.453835e+03  4.617055e+03  3.783846e+03 -2.189777e+00 -2.570246e+00  3.667032e+00
2025-07-22T00:01:41.000  2.451644e+03  4.614481e+03  3.787510e+03 -2.193575e+00 -2.576459e+00  3.661758e+00
2025-07-22T00:01:42.000  2.449448e+03  4.611902e+03  3.791169e+03 -2.197369e+00 -2.582669e+00  3.656479e+00
2025-07-22T00:01:43.000  2.447249e+03  4.609316e+03  3.794823e+03 -2.201161e+00 -2.588877e+00  3.651194e+00
2025-07-22T00:01:44.000  2.445046e+03  4.606724e+03  3.798472e+03 -2.204949e+00 -2.595082e+00  3.645904e+00
2025-07-22T00:01:45.000  2.442839e+03  4.604126e+03  3.802115e+03 -2.208735e+00 -2.601284e+00  3.640608e+00
2025-07-22T00:01:46.000  2.440628e+03  4.601521e+03  3.805753e+03 -2.212519e+00 -2.607484e+00  3.635306e+00
2025-07-22T00:01:47.000  2.438414e+03  4.598911e+03  3.809386e+03 -2.216301e+00 -2.613683e+00  3.629998e+00
2025-07-22T00:01:48.000  2.436196e+03  4.596294e+03  3.813013e+03 -2.220080e+00 -2.619878e+00  3.624684e+00
2025-07-22T00:01:49.000  2.433974e+03  4.593671e+03  3.816635e+03 -2.223858e+00 -2.626072e+00  3.619364e+00
2025-07-22T00:01:50.000  2.431748e+03  4.591042e+03  3.820252e+03 -2.227632e+00 -2.632263e+00  3.614038e+00
2025-07-22T00:01:51.000  2.429519e+03  4.588406e+03  3.823863e+03 -2.231404e+00 -2.638452e+00  3.608707e+00
2025-07-22T00:01:52.000  2.427285e+03  4.585765e+03  3.827469e+03 -2.235174e+00 -2.644638e+00  3.603370e+00
2025-07-22T00:01:53.000  2.425048e+03  4.583117e+03  3.831070e+03 -2.238940e+00 -2.650822e+00  3.598027e+00
2025-07-22T00:01:54.000  2.422807e+03  4.580463e+03  3.834665e+03 -2.242704e+00 -2.657003e+00  3.592679e+00
2025-07-22T00:01:55.000  2.420563e+03  4.577803e+03  3.838255e+03 -2.246464e+00 -2.663181e+00  3.587325e+00
2025-07-22T00:01:56.000  2.418314e+03  4.575137e+03  3.841840e+03 -2.250220e+00 -2.669356e+00  3.581966e+00
2025-07-22T00:01:57.000  2.416062e+03  4.572464e+03  3.845419e+03 -2.253973e+00 -2.675529e+00  3.576601e+00
2025-07-22T00:01:58.000  2.413806e+03  4.569786e+03  3.848993e+03 -2.257722e+00 -2.681698e+00  3.571232e+00
2025-07-22T00:01:59.000  2.411547e+03  4.567101e+03  3.852562e+03 -2.261467e+00 -2.687863e+00  3.565858e+00
2025-07-22T00:02:00.000  2.409284e+03  4.564410e+03  3.856125e+03 -2.265207e+00 -2.694026e+00  3.560479e+00
2025-07-22T00:02:01.000  2.407016e+03  4.561713e+03  3.859683e+03 -2.268942e+00 -2.700184e+00  3.555095e+00
2025-07-22T00:02:02.000  2.404746e+03  4.559010e+03  3.863235e+03 -2.272671e+00 -2.706339e+00  3.549707e+00
2025-07-22T00:02:03.000  2.402471e+03  4.556300e+03  3.866782e+03 -2.276394e+00 -2.712489e+00  3.544315e+00
2025-07-22T00:02:04.000  2.400193e+03  4.553585e+03  3.870324e+03 -2.280111e+00 -2.718635e+00  3.538920e+00
2025-07-22T00:02:05.000  2.397911e+03  4.550863e+03  3.873860e+03 -2.283820e+00 -2.724776e+00  3.533521e+00
2025-07-22T00:02:06.000  2.395625e+03  4.548135e+03  3.877391e+03 -2.287522e+00 -2.730911e+00  3.528119e+00
2025-07-22T00:02:07.000  2.393336e+03  4.545401e+03  3.880916e+03 -2.291215e+00 -2.737041e+00  3.522714e+00
2025-07-22T00:02:08.000  2.391043e+03  4.542661e+03  3.884436e+03 -2.294898e+00 -2.743165e+00  3.517307e+00
2025-07-22T00:02:09.000  2.388746e+03  4.539915e+03  3.887951e+03 -2.298570e+00 -2.749281e+00  3.511899e+00
2025-07-22T00:02:10.000  2.386446e+03  4.537163e+03  3.891460e+03 -2.302230e+00 -2.755391e+00  3.506491e+00
2025-07-22T00:02:11.000  2.384142e+03  4.534404e+03  3.894964e+03 -2.305878e+00 -2.761492e+00  3.501082e+00
2025-07-22T00:02:12.000  2.381834e+03  4.531640e+03  3.898462e+03 -2.309510e+00 -2.767584e+00  3.495674e+00
2025-07-22T00:02:13.000  2.379523e+03  4.528869e+03  3.901955e+03 -2.313125e+00 -2.773666e+00  3.490267e+00
2025-07-22T00:02:14.000  2.377208e+03  4.526092e+03  3.905443e+03 -2.316723e+00 -2.779737e+00  3.484864e+00
2025-07-22T00:02:15.000  2.374889e+03  4.523310e+03  3.908925e+03 -2.320299e+00 -2.785796e+00  3.479465e+00
2025-07-22T00:02:16.000  2.372567e+03  4.520521e+03  3.912401e+03 -2.323852e+00 -2.791841e+00  3.474072e+00
2025-07-22T00:02:17.000  2.370241e+03  4.517726e+03  3.915873e+03 -2.327378e+00 -2.797871e+00  3.468686e+00
2025-07-22T00:02:18.000  2.367912e+03  4.514925e+03  3.919339e+03 -2.330875e+00 -2.803884e+00  3.463309e+00
2025-07-22T00:02:19.000  2.365580e+03  4.512118e+03  3.922799e+03 -2.334339e+00 -2.809878e+00  3.457943e+00
2025-07-22T00:02:20.000  2.363244e+03  4.509305e+03  3.926255e+03 -2.337765e+00 -2.815850e+00  3.452592e+00
2025-07-22T00:02:21.000  2.360904e+03  4.506486e+03  3.929705e+03 -2.341148e+00 -2.821798e+00  3.447258e+00
2025-07-22T00:02:22.000  2.358561e+03  4.503662e+03  3.933149e+03 -2.344315e+00 -2.827628e+00  3.442037e+00
2025-07-22T00:02:23.000  2.356216e+03  4.500831e+03  3.936589e+03 -2.347157e+00 -2.833279e+00  3.436991e+00
2025-07-22T00:02:24.000  2.353867e+03  4.497995e+03  3.940023e+03 -2.349804e+00 -2.838823e+00  3.432048e+00
2025-07-22T00:02:25.000  2.351516e+03  4.495153e+03  3.943453e+03 -2.352319e+00 -2.844294e+00  3.427174e+00
2025-07-22T00:02:26.000  2.349162e+03  4.492306e+03  3.946878e+03 -2.354686e+00 -2.849684e+00  3.422378e+00
2025-07-22T00:02:27.000  2.346807e+03  4.489454e+03  3.950298e+03 -2.356887e+00 -2.854982e+00  3.417671e+00
2025-07-22T00:02:28.000  2.344449e+03  4.486596e+03  3.953713e+03 -2.358900e+00 -2.860178e+00  3.413065e+00
2025-07-22T00:02:29.000  2.342089e+03  4.483734e+03  3.957124e+03 -2.360702e+00 -2.865258e+00  3.408574e+00
2025-07-22T00:02:30.000  2.339727e+03  4.480866e+03  3.960530e+03 -2.362267e+00 -2.870208e+00  3.404214e+00
2025-07-22T00:02:31.000  2.337364e+03  4.477993e+03  3.963932e+03 -2.363565e+00 -2.875012e+00  3.400001e+00
2025-07-22T00:02:32.000  2.335000e+03  4.475116e+03  3.967330e+03 -2.364562e+00 -2.879652e+00  3.395957e+00
2025-07-22T00:02:33.000  2.332635e+03  4.472234e+03  3.970724e+03 -2.365221e+00 -2.884107e+00  3.392103e+00
2025-07-22T00:02:34.000  2.330270e+03  4.469348e+03  3.974114e+03 -2.365500e+00 -2.888355e+00  3.388463e+00
2025-07-22T00:02:35.000  2.327904e+03  4.466457e+03  3.977501e+03 -2.365349e+00 -2.892368e+00  3.385067e+00
2025-07-22T00:02:36.000  2.325539e+03  4.463563e+03  3.980884e+03 -2.364718e+00 -2.896118e+00  3.381944e+00
2025-07-22T00:02:37.000  2.323175e+03  4.460665e+03  3.984265e+03 -2.363545e+00 -2.899572e+00  3.379129e+00
2025-07-22T00:02:38.000  2.320812e+03  4.457764e+03  3.987643e+03 -2.361764e+00 -2.902694e+00  3.376661e+00
2025-07-22T00:02:39.000  2.318451e+03  4.454860e+03  3.991018e+03 -2.359302e+00 -2.905442e+00  3.374581e+00
2025-07-22T00:02:40.000  2.316093e+03  4.451953e+03  3.994392e+03 -2.356076e+00 -2.907773e+00  3.372937e+00
2025-07-22T00:02:41.000  2.313739e+03  4.449044e+03  3.997764e+03 -2.351995e+00 -2.909635e+00  3.371778e+00
2025-07-22T00:02:42.000  2.311389e+03  4.446134e+03  4.001135e+03 -2.346960e+00 -2.910972e+00  3.371160e+00
2025-07-22T00:02:43.000  2.309045e+03  4.443222e+03  4.004506e+03 -2.340863e+00 -2.911725e+00  3.371141e+00
2025-07-22T00:02:44.000  2.306708e+03  4.440310e+03  4.007878e+03 -2.333583e+00 -2.911826e+00  3.371785e+00
2025-07-22T00:02:45.000  2.304378e+03  4.437399e+03  4.011250e+03 -2.324995e+00 -2.911203e+00  3.373158e+00
2025-07-22T00:02:46.000  2.302058e+03  4.434488e+03  4.014624e+03 -2.314960e+00 -2.909777e+00  3.375327e+00
2025-07-22T00:02:47.000  2.299748e+03  4.431579e+03  4.018001e+03 -2.303334e+00 -2.907465e+00  3.378364e+00
2025-07-22T00:02:48.000  2.297451e+03  4.428673e+03  4.021381e+03 -2.289965e+00 -2.904179e+00  3.382337e+00
2025-07-22T00:02:49.000  2.295168e+03  4.425771e+03  4.024765e+03 -2.274699e+00 -2.899826e+00  3.387314e+00
2025-07-22T00:02:50.000  2.292901e+03  4.422873e+03  4.028155e+03 -2.257378e+00 -2.894312e+00  3.393356e+00
2025-07-22T00:02:51.000  2.290653e+03  4.419982e+03  4.031552e+03 -2.237846e+00 -2.887540e+00  3.400518e+00
2025-07-22T00:02:52.000  2.288426e+03  4.417098e+03  4.034956e+03 -2.215955e+00 -2.879416e+00  3.408844e+00
2025-07-22T00:02:53.000  2.286221e+03  4.414223e+03  4.038370e+03 -2.191570e+00 -2.869849e+00  3.418361e+00
2025-07-22T00:02:54.000  2.284043e+03  4.411358e+03  4.041793e+03 -2.164572e+00 -2.858757e+00  3.429079e+00
2025-07-22T00:02:55.000  2.281892e+03  4.408506e+03  4.045228e+03 -2.134873e+00 -2.846069e+00  3.440983e+00
